IRIDIUM 166             
1 43570U 18061B   24280.37849709  .00000624  00000+0  21575-3 0  9992
2 43570  86.3953 315.3547 0002221  98.0494 262.0954 14.34221460324705
IRIDIUM 158             
1 43571U 18061C   24280.41655146  .00000526  00000+0  18060-3 0  9994
2 43571  86.3951 315.3482 0002249  96.5637 263.5815 14.34221096324677
IRIDIUM 165             
1 43572U 18061D   24280.37215783  .00000108  00000+0  31560-4 0  9996
2 43572  86.3954 315.4015 0002180  92.1308 268.0137 14.34217102324697
IRIDIUM 155             
1 43573U 18061E   24280.54340747  .00001004  00000+0  35152-3 0  9991
2 43573  86.3947 315.2290 0002303  99.9671 260.1785 14.34217465324681
IRIDIUM 154             
1 43574U 18061F   24280.38484268  .00000019  00000+0 -17288-6 0  9990
2 43574  86.3952 315.3984 0001893  90.7668 269.3745 14.34217495324711
IRIDIUM 163             
1 43575U 18061G   24280.85419305  .00000469  00000+0  16028-3 0  9999
2 43575  86.3950 315.1372 0002024  97.0451 263.0975 14.34219377324757
IRIDIUM 156             
1 43576U 18061H   24280.82882195  .00001245  00000+0  43742-3 0  9994
2 43576  86.3948 315.1543 0002412  99.4109 260.7360 14.34222863324736
IRIDIUM 164             
1 43577U 18061J   24280.80979486  .00001285  00000+0  45162-3 0  9995
2 43577  86.3952 315.1931 0002349  88.8251 271.3214 14.34215370324788
